From:	Horizons Ephemeris System <horizons@ssd.jpl.nasa.gov>
Sent:	Wednesday, March 4, 2020 10:03 AM
Subject:	[Horizons] MAJOR BODY #C(usr={0.,85.,.600^G}@301)_T(301) (1/1)

 Automated mail xmit by MAIL_REQUEST, PID= 16602 Wed Mar  4 08:03:00 2020
++++++++++++++++++++++++++++++++ (part 1 of 1)  +++++++++++++++++++++++++++++++
*******************************************************************************
 Revised: July 31, 2013             Moon / (Earth)                          301
 
 GEOPHYSICAL DATA (updated 2018-Aug-15):
  Vol. mean radius, km  = 1737.53+-0.03    Mass, x10^22 kg       =    7.349
  Radius (gravity), km  = 1738.0           Surface emissivity    =    0.92
  Radius (IAU), km      = 1737.4           GM, km^3/s^2          = 4902.800066
  Density, g/cm^3       =    3.3437        GM 1-sigma, km^3/s^2  =  +-0.0001  
  V(1,0)                =   +0.21          Surface accel., m/s^2 =    1.62
  Earth/Moon mass ratio = 81.3005690769    Farside crust. thick. = ~80 - 90 km
  Mean crustal density  = 2.97+-.07 g/cm^3 Nearside crust. thick.= 58+-8 km 
  Heat flow, Apollo 15  = 3.1+-.6 mW/m^2   Mean angular diameter = 31'05.2"
  Heat flow, Apollo 17  = 2.2+-.5 mW/m^2   Sid. rot. rate, rad/s = 0.0000026617
  Geometric Albedo      = 0.12             Mean solar day        = 29.5306 d
  Obliquity to orbit    = 6.67 deg         Orbit period          = 27.321582 d
  Semi-major axis, a    = 384400 km        Eccentricity          = 0.05490
  Mean motion, rad/s    = 2.6616995x10^-6  Inclination           = 5.145 deg
  Apsidal period        = 3231.50 d        Nodal period          = 6798.38 d
                                 Perihelion  Aphelion    Mean
  Solar Constant (W/m^2)         1414+-7     1323+-7     1368+-7
  Maximum Planetary IR (W/m^2)   1314        1226        1268
  Minimum Planetary IR (W/m^2)      5.2         5.2         5.2
 *******************************************************************************
 
 
*******************************************************************************
Ephemeris / MAIL_REQUEST Wed Mar  4 08:02:59 2020 Pasadena, USA  / Horizons    
*******************************************************************************
Target body name: Moon (301)                      {source: DE431mx}
Center body name: Moon (301)                      {source: DE431mx}
Center-site name: (user defined site below)
*******************************************************************************
Start time      : A.D. 2020-Jan-01 00:00:00.0000 TDB
Stop  time      : A.D. 2039-Jan-01 00:00:00.0000 TDB
Step-size       : 10000 steps
*******************************************************************************
Center geodetic : 0.00000000,85.0000000,0.6000000 {E-lon(deg),Lat(deg),Alt(km)}
Center cylindric: 0.00000000,151.476681,1731.3864 {E-lon(deg),Dxy(km),Dz(km)}
Center pole/equ : IAU_MOON                        {East-longitude positive}
Center radii    : 1737.4 x 1737.4 x 1737.4 km     {Equator, meridian, pole}    
Output units    : KM-S                                                         
Output type     : GEOMETRIC cartesian states
Output format   : 3 (position, velocity, LT, range, range-rate)
Reference frame : ICRF/J2000.0                                                 
Coordinate systm: Ecliptic and Mean Equinox of Reference Epoch                 
*******************************************************************************
JDTDB
   X     Y     Z
   VX    VY    VZ
   LT    RG    RR
*******************************************************************************
$$SOE
2461211.876000001 = A.D. 2026-Jun-20 09:01:26.4001 TDB 
  -1.564395847266688E+02  2.891408160483104E+01 -1.730703507887904E+03
  -1.882696247500919E-04 -3.593172732438121E-04  1.101488086495975E-05
   5.797343974543882E-03  1.738000000000000E+03 -1.197737727947162E-20
2461212.570000001 = A.D. 2026-Jun-21 01:40:48.0001 TDB 
  -1.659641955770394E+02  6.560754811087577E+00 -1.730045329545667E+03
  -1.287424840594119E-04 -3.846886181877155E-04  1.089150369598278E-05
   5.797343974543885E-03  1.738000000000000E+03  2.595098410552185E-20
2461213.264000001 = A.D. 2026-Jun-21 18:20:09.6001 TDB 
  -1.718128785912815E+02 -1.702342567140124E+01 -1.729402942558092E+03
  -6.592031299494359E-05 -4.002828495362052E-04  1.048925246020644E-05
   5.797343974543884E-03  1.738000000000000E+03  3.792836138499347E-20
2461213.958000001 = A.D. 2026-Jun-22 10:59:31.2001 TDB 
  -1.738355986940932E+02 -4.123869536970665E+01 -1.728792802689458E+03
  -1.400027677253221E-06 -4.056917329676083E-04  9.818164682845465E-06
   5.797343974543884E-03  1.738000000000000E+03  7.186426367682975E-20
2461214.652000001 = A.D. 2026-Jun-23 03:38:52.8001 TDB 
  -1.719796813863055E+02 -6.546855140113803E+01 -1.728230556947684E+03
   6.317479170569974E-05 -4.007665852127502E-04  8.895125232490856E-06
   5.797343974543884E-03  1.738000000000000E+03 -1.397360682605023E-20
2461215.346000001 = A.D. 2026-Jun-23 20:18:14.4001 TDB 
  -1.662913511479831E+02 -8.909549725164936E+01 -1.727730644198586E+03
   1.261560824905335E-04 -3.856231957107177E-04  7.743466845166146E-06
   5.797343974543885E-03  1.738000000000000E+03 -1.796606591920743E-20
2461216.040000001 = A.D. 2026-Jun-24 12:57:36.0001 TDB 
  -1.569147220114607E+02 -1.115168760545338E+02 -1.727305924372143E+03
   1.859339087927777E-04 -3.606398326035523E-04  6.392417085044537E-06
   5.797343974543884E-03  1.738000000000000E+03  2.096041023907534E-20
2461216.734000001 = A.D. 2026-Jun-25 05:36:57.6001 TDB 
  -1.440882493735661E+02 -1.321603753516547E+02 -1.726967345255657E+03
   2.409783366352284E-04 -3.264482889530443E-04  4.876398943703876E-06
   5.797343974543884E-03  1.738000000000000E+03  2.295663978565394E-20
2461217.428000001 = A.D. 2026-Jun-25 22:16:19.2001 TDB 
  -1.281387220921791E+02 -1.504987898774297E+02 -1.726723655408130E+03
   2.898794094255091E-04 -2.839181328969229E-04  3.234193452516230E-06
   5.797343974543884E-03  1.738000000000000E+03  4.990573866446510E-22
2461218.122000001 = A.D. 2026-Jun-26 14:55:40.8001 TDB 
  -1.094729428880647E+02 -1.660636450120382E+02 -1.726581171153196E+03
   3.313840955876011E-04 -2.341345348961741E-04  1.507975507484237E-06
   5.797343974543885E-03  1.738000000000000E+03  1.896418069249673E-20
2461218.816000001 = A.D. 2026-Jun-27 07:35:02.4001 TDB 
  -8.856731058037344E+01 -1.784573120374733E+02 -1.726543604800331E+03
   3.644291580812406E-04 -1.783702468782438E-04 -2.577610097630943E-07
   5.797343974543885E-03  1.738000000000000E+03 -2.152184979905057E-21
2461219.510000001 = A.D. 2026-Jun-28 00:14:24.0001 TDB 
  -6.595557737539680E+01 -1.873632864399620E+02 -1.726611960084690E+03
   3.881690110641744E-04 -1.180524929112287E-04 -2.017365963065283E-06
   5.797343974543883E-03  1.738000000000000E+03  6.986803413025114E-21
2461220.204000001 = A.D. 2026-Jun-28 16:53:45.6001 TDB 
  -4.221510618053598E+01 -1.925543509897095E+02 -1.726784499213813E+03
   4.019977771334965E-04 -5.472569094133822E-05 -3.725252888988714E-06
   5.797343974543884E-03  1.738000000000000E+03 -3.493401706512556E-21
2461220.898000001 = A.D. 2026-Jun-29 09:33:07.2001 TDB 
  -1.795199496516764E+01 -1.938984044835948E+02 -1.727056783842236E+03
   4.055649330295159E-04  9.988946521187454E-06 -5.337138022884273E-06
   5.797343974543884E-03  1.738000000000001E+03  9.981147732893018E-22
2461221.592000001 = A.D. 2026-Jun-30 02:12:28.8001 TDB 
   6.214533833823982E+00 -1.913618028170090E+02 -1.727421789833581E+03
   3.987841252402655E-04  7.443579299423549E-05 -6.811254884035352E-06
   5.797343974543884E-03  1.738000000000000E+03  3.992459093157209E-21
2461222.286000001 = A.D. 2026-Jun-30 18:51:50.4001 TDB 
   2.966806187904976E+01 -1.850101291652136E+02 -1.727870092978813E+03
   3.818349420811687E-04  1.369679777587818E-04 -8.109498870511808E-06
   5.797343974543883E-03  1.738000000000000E+03 -4.990573866446509E-21
2461222.980000001 = A.D. 2026-Jul-01 11:31:12.0001 TDB 
   5.181079795771662E+01 -1.750063820886086E+02 -1.728390120153214E+03
   3.551576379972111E-04  1.959901410103819E-04 -9.198458549647610E-06
   5.797343974543884E-03  1.738000000000000E+03 -9.981147732893020E-21
2461223.674000001 = A.D. 2026-Jul-02 04:10:33.6001 TDB 
   7.207887790436695E+01 -1.616066418899289E+02 -1.728968457970564E+03
   3.194410116013060E-04  2.499995994252562E-04 -1.005029674426885E-05
   5.797343974543884E-03  1.738000000000000E+03  7.984918186314416E-21
2461224.368000001 = A.D. 2026-Jul-02 20:49:55.2001 TDB 
   8.995674186196314E+01 -1.451533441855501E+02 -1.729590209056854E+03
   2.756038341036062E-04  2.976248139517305E-04 -1.064345415502141E-05
   5.797343974543884E-03  1.738000000000000E+03  4.591327957130789E-20
2461225.062000001 = A.D. 2026-Jul-03 13:29:16.8001 TDB 
   1.049902185373672E+02 -1.260663532301324E+02 -1.730239384765800E+03
   2.247704024866342E-04  3.376601527641899E-04 -1.096315953695313E-05
   5.797343974543884E-03  1.738000000000000E+03 -2.195852501236464E-20
2461225.756000001 = A.D. 2026-Jul-04 06:08:38.4001 TDB 
   1.167979853007613E+02 -1.048320841453403E+02 -1.730899322538266E+03
   1.682409459141610E-04  3.690960724534581E-04 -1.100174155095385E-05
   5.797343974543884E-03  1.738000000000000E+03 -5.389819775762231E-20
2461226.450000001 = A.D. 2026-Jul-04 22:48:00.0001 TDB 
   1.250811205752709E+02 -8.199097130719110E+01 -1.731553116106965E+03
   1.074577394534666E-04  3.911439931113789E-04 -1.075874674450315E-05
   5.797343974543885E-03  1.738000000000000E+03 -1.796606591920743E-20
2461227.144000001 = A.D. 2026-Jul-05 15:27:21.6001 TDB 
   1.296305191494081E+02 -5.812361860662975E+01 -1.732184047226254E+03
   4.396787280411487E-05  4.032553106214274E-04 -1.024087464987966E-05
   5.797343974543883E-03  1.738000000000000E+03 -1.996229546578604E-21
